COSMOS 2251 DEB         
1 35033U 93036AGW 17345.28443707  .00000318  00000-0  10888-3 0  9990
2 35033  74.0302 204.5650 0017484 299.3437  60.5971 14.40137879237650
